[
    {
        "Altitude(m)": 585510.1995719585,
        "Argument of Periapsis(deg)": -0.022603160782972403,
        "Eccentricity": 0.0,
        "Inclination(deg)": 97.0,
        "Latitude(deg)": -57.04044979585354,
        "Longitude(deg)": -61.48935655880221,
        "Mean Anomaly(deg)": 302.54874326918747,
        "RAAN(deg)": 30.005947053618513,
        "Satellite Name": "Starlink Shell 3 1685",
        "Satellite Number": 1685,
        "Semi-Major Axis(m)": 6938478.169268562,
        "Time(s)": 570
    },
    {
        "Altitude(m)": 585288.8445269391,
        "Argument of Periapsis(deg)": -0.02299970746337543,
        "Eccentricity": 0.0,
        "Inclination(deg)": 97.0,
        "Latitude(deg)": -56.43351799933214,
        "Longitude(deg)": -61.78180655238309,
        "Mean Anomaly(deg)": 303.1742194668925,
        "RAAN(deg)": 30.006051387892512,
        "Satellite Name": "Starlink Shell 3 1685",
        "Satellite Number": 1685,
        "Semi-Major Axis(m)": 6938478.169268562,
        "Time(s)": 580
    },
    {
        "Altitude(m)": 585065.0126383326,
        "Argument of Periapsis(deg)": -0.023396254143778456,
        "Eccentricity": 0.0,
        "Inclination(deg)": 97.0,
        "Latitude(deg)": -55.8260129118744,
        "Longitude(deg)": -62.06640498215447,
        "Mean Anomaly(deg)": 303.79969566459755,
        "RAAN(deg)": 30.00615572216653,
        "Satellite Name": "Starlink Shell 3 1685",
        "Satellite Number": 1685,
        "Semi-Major Axis(m)": 6938478.169268562,
        "Time(s)": 590
    },
    {
        "Altitude(m)": 584838.7935047119,
        "Argument of Periapsis(deg)": -0.023792800824181483,
        "Eccentricity": 0.0,
        "Inclination(deg)": 97.0,
        "Latitude(deg)": -55.217959459774114,
        "Longitude(deg)": -62.343561760200544,
        "Mean Anomaly(deg)": 304.4251718623026,
        "RAAN(deg)": 30.00626005644054,
        "Satellite Name": "Starlink Shell 3 1685",
        "Satellite Number": 1685,
        "Semi-Major Axis(m)": 6938478.169268562,
        "Time(s)": 600
    },
    {
        "Altitude(m)": 584610.2776244333,
        "Argument of Periapsis(deg)": -0.024189347504584503,
        "Eccentricity": 0.0,
        "Inclination(deg)": 97.0,
        "Latitude(deg)": -54.60938086420444,
        "Longitude(deg)": -62.613659652214494,
        "Mean Anomaly(deg)": 305.05064806000763,
        "RAAN(deg)": 30.006364390714545,
        "Satellite Name": "Starlink Shell 3 1685",
        "Satellite Number": 1685,
        "Semi-Major Axis(m)": 6938478.169268562,
        "Time(s)": 610
    },
    {
        "Altitude(m)": 584379.5563559385,
        "Argument of Periapsis(deg)": -0.02458589418498753,
        "Eccentricity": 0.0,
        "Inclination(deg)": 97.0,
        "Latitude(deg)": -54.000298785454376,
        "Longitude(deg)": -62.87705596474491,
        "Mean Anomaly(deg)": 305.6761242577127,
        "RAAN(deg)": 30.006468724988554,
        "Satellite Name": "Starlink Shell 3 1685",
        "Satellite Number": 1685,
        "Semi-Major Axis(m)": 6938478.169268562,
        "Time(s)": 620
    },
    {
        "Altitude(m)": 584146.7218776213,
        "Argument of Periapsis(deg)": -0.024982440865390556,
        "Eccentricity": 0.0,
        "Inclination(deg)": 97.0,
        "Latitude(deg)": -53.39073345329009,
        "Longitude(deg)": -63.13408570791431,
        "Mean Anomaly(deg)": 306.3016004554177,
        "RAAN(deg)": 30.006573059262564,
        "Satellite Name": "Starlink Shell 3 1685",
        "Satellite Number": 1685,
        "Semi-Major Axis(m)": 6938478.169268562,
        "Time(s)": 630
    },
    {
        "Altitude(m)": 583911.8671472926,
        "Argument of Periapsis(deg)": -0.025378987545793576,
        "Eccentricity": 0.0,
        "Inclination(deg)": 97.0,
        "Latitude(deg)": -52.7807037849566,
        "Longitude(deg)": -63.385062052955924,
        "Mean Anomaly(deg)": 306.92707665312275,
        "RAAN(deg)": 30.00667739353657,
        "Satellite Name": "Starlink Shell 3 1685",
        "Satellite Number": 1685,
        "Semi-Major Axis(m)": 6938478.169268562,
        "Time(s)": 640
    },
    {
        "Altitude(m)": 583675.0858612485,
        "Argument of Periapsis(deg)": -0.025775534226196602,
        "Eccentricity": 0.0,
        "Inclination(deg)": 97.0,
        "Latitude(deg)": -52.170227492154496,
        "Longitude(deg)": -63.6302791467225,
        "Mean Anomaly(deg)": 307.5525528508278,
        "RAAN(deg)": 30.00678172781058,
        "Satellite Name": "Starlink Shell 3 1685",
        "Satellite Number": 1685,
        "Semi-Major Axis(m)": 6938478.169268562,
        "Time(s)": 650
    },
    {
        "Altitude(m)": 583436.4724129516,
        "Argument of Periapsis(deg)": -0.026172080906599626,
        "Eccentricity": 0.0,
        "Inclination(deg)": 97.0,
        "Latitude(deg)": -51.559321178163664,
        "Longitude(deg)": -63.87001309773255,
        "Mean Anomaly(deg)": 308.17802904853284,
        "RAAN(deg)": 30.006886062084593,
        "Satellite Name": "Starlink Shell 3 1685",
        "Satellite Number": 1685,
        "Semi-Major Axis(m)": 6938478.169268562,
        "Time(s)": 660
    },
    {
        "Altitude(m)": 583196.1218513831,
        "Argument of Periapsis(deg)": -0.026568627587002652,
        "Eccentricity": 0.0,
        "Inclination(deg)": 97.0,
        "Latitude(deg)": -50.948000426144866,
        "Longitude(deg)": -64.1045228297852,
        "Mean Anomaly(deg)": 308.8035052462379,
        "RAAN(deg)": 30.006990396358596,
        "Satellite Name": "Starlink Shell 3 1685",
        "Satellite Number": 1685,
        "Semi-Major Axis(m)": 6938478.169268562,
        "Time(s)": 670
    },
    {
        "Altitude(m)": 582954.1298390133,
        "Argument of Periapsis(deg)": -0.02696517426740568,
        "Eccentricity": 0.0,
        "Inclination(deg)": 97.0,
        "Latitude(deg)": -50.33627987953676,
        "Longitude(deg)": -64.33405232936938,
        "Mean Anomaly(deg)": 309.4289814439429,
        "RAAN(deg)": 30.00709473063261,
        "Satellite Name": "Starlink Shell 3 1685",
        "Satellite Number": 1685,
        "Semi-Major Axis(m)": 6938478.169268562,
        "Time(s)": 680
    },
    {
        "Altitude(m)": 582710.5926094735,
        "Argument of Periapsis(deg)": -0.0273617209478087,
        "Eccentricity": 0.0,
        "Inclination(deg)": 97.0,
        "Latitude(deg)": -49.7241733153486,
        "Longitude(deg)": -64.5588312729743,
        "Mean Anomaly(deg)": 310.054457641648,
        "RAAN(deg)": 30.00719906490661,
        "Satellite Name": "Starlink Shell 3 1685",
        "Satellite Number": 1685,
        "Semi-Major Axis(m)": 6938478.169268562,
        "Time(s)": 690
    },
    {
        "Altitude(m)": 582465.6069249088,
        "Argument of Periapsis(deg)": -0.027758267628211725,
        "Eccentricity": 0.0,
        "Inclination(deg)": 97.0,
        "Latitude(deg)": -49.11169371106763,
        "Longitude(deg)": -64.77907555772144,
        "Mean Anomaly(deg)": 310.67993383935305,
        "RAAN(deg)": 30.007303399180625,
        "Satellite Name": "Starlink Shell 3 1685",
        "Satellite Number": 1685,
        "Semi-Major Axis(m)": 6938478.169268562,
        "Time(s)": 700
    },
    {
        "Altitude(m)": 582219.2700330659,
        "Argument of Periapsis(deg)": -0.028154814308614752,
        "Eccentricity": 0.0,
        "Inclination(deg)": 97.0,
        "Latitude(deg)": -48.498853305814094,
        "Longitude(deg)": -64.99498925758989,
        "Mean Anomaly(deg)": 311.3054100370581,
        "RAAN(deg)": 30.007407733454635,
        "Satellite Name": "Starlink Shell 3 1685",
        "Satellite Number": 1685,
        "Semi-Major Axis(m)": 6938478.169268562,
        "Time(s)": 710
    },
    {
        "Altitude(m)": 581971.6796240737,
        "Argument of Periapsis(deg)": -0.02855136098901778,
        "Eccentricity": 0.0,
        "Inclination(deg)": 97.0,
        "Latitude(deg)": -47.88566365630667,
        "Longitude(deg)": -65.20676498785856,
        "Mean Anomaly(deg)": 311.9308862347631,
        "RAAN(deg)": 30.00751206772864,
        "Satellite Name": "Starlink Shell 3 1685",
        "Satellite Number": 1685,
        "Semi-Major Axis(m)": 6938478.169268562,
        "Time(s)": 720
    },
    {
        "Altitude(m)": 581722.9337870176,
        "Argument of Periapsis(deg)": -0.028947907669420805,
        "Eccentricity": 0.0,
        "Inclination(deg)": 97.0,
        "Latitude(deg)": -47.27213568813958,
        "Longitude(deg)": -65.41458419812618,
        "Mean Anomaly(deg)": 312.55636243246823,
        "RAAN(deg)": 30.00761640200265,
        "Satellite Name": "Starlink Shell 3 1685",
        "Satellite Number": 1685,
        "Semi-Major Axis(m)": 6938478.169268562,
        "Time(s)": 730
    },
    {
        "Altitude(m)": 581473.130966248,
        "Argument of Periapsis(deg)": -0.029344454349823825,
        "Eccentricity": 0.0,
        "Inclination(deg)": 97.0,
        "Latitude(deg)": -46.658279742822025,
        "Longitude(deg)": -65.61861891347714,
        "Mean Anomaly(deg)": 313.18183863017316,
        "RAAN(deg)": 30.007720736276664,
        "Satellite Name": "Starlink Shell 3 1685",
        "Satellite Number": 1685,
        "Semi-Major Axis(m)": 6938478.169268562,
        "Time(s)": 740
    },
    {
        "Altitude(m)": 581222.3699174955,
        "Argument of Periapsis(deg)": -0.029741001030226845,
        "Eccentricity": 0.0,
        "Inclination(deg)": 97.0,
        "Latitude(deg)": -46.04410562097266,
        "Longitude(deg)": -65.81903190403548,
        "Mean Anomaly(deg)": 313.80731482787826,
        "RAAN(deg)": 30.007825070550666,
        "Satellite Name": "Starlink Shell 3 1685",
        "Satellite Number": 1685,
        "Semi-Major Axis(m)": 6938478.169268562,
        "Time(s)": 750
    }
]